# GM,diameter,a,e,i,om,w,ma
,,221.93046165412,.9983333700466672,67.8282805226805,41.77495706712039,207.756637434616,.008988305024143156
,,,1.0,138.2649,358.4191,240.4503,
,,-7003.6779661,1.000059,136.2293,164.2164,47.6513,0.0000046
,,-4421.6188679,1.001060,92.1782,293.1365,10.1010,0.0000355
,,,1.0,141.456,344.997,67.668,
,,53.4298773,0.973197,67.0840,297.6307,112.5727,-0.0084436
,,45.25922633504624,.9879521840347483,148.6024233616918,103.2161588590852,257.6049367562282,.1113282348553456
,,-58.26829222588107,1.057731876173255,1.661712630614323,114.5581951921299,135.0826233919265,-.1513193748893878
,,-15755.4695122,1.000164,73.1503,279.5228,334.9641,0.0000056
,,,1.0,49.0681,160.6356,337.7695,
,,-1226.0249565,1.001723,128.7068,232.7890,297.1927,0.0002488
,,283.2570973972398,.9946354967632665,100.9860029929185,25.43672565274277,87.96686324566642,.007308471523411907
,,944.8109091,0.999725,138.5850,115.3515,358.2941,-0.0000863
,,1262.819214452988,.9986877014790708,82.64631802621146,332.0004867123912,105.5986482880437,.0006519066066791746
,,,1.0,140.676,342.107,65.428,
,,-7196.5371775,1.000659,115.3105,176.7053,310.2409,0.0000093
,,2510.8712972,0.999021,160.6640,24.2644,189.8443,-0.0001234
,,3857.1917355,0.999395,107.1467,143.9696,181.6147,-0.0000356
,,,1.0,141.706,345.957,68.428,
,,,1.0,143.847,357.569,77.680,
,,,1.0,135.48,24.63,97.36,
,,1072.309742694443,.9993958725136343,84.49508132807125,326.2625272767282,33.82276240609676,.0003163542542935569
,9.2,97.58255328872977,.9898410042742818,73.25079716352917,49.10248462703545,192.8510252976418,359.9915597306886
,,1855.386164044707,.9997461524389686,96.61349940693115,83.04165172923508,82.15443167104128,.0002673345879397281
,,,1.0,152.1911,119.6342,227.0805,
,,4168.9637931,0.999420,138.8364,171.7915,265.5810,-0.0000612
,,,1.0,142.23,359.55,81.43,
,,-2193.518019737866,1.001512627551151,134.6952731551697,209.5758959952179,186.2091153679715,.002962705832171035
,,-11503.9591837,1.000196,120.7372,201.2574,333.9786,0.0000112
,,-22005.8421053,1.000152,137.5972,164.6840,176.0386,0.0000055
,,,1.0,143.987,358.679,78.581,
,,28.4680038138321,.9523152204999124,51.80056571291759,356.8583448950124,219.1648630851764,.3841629188204044
,,-3745.1500000,1.000720,116.6650,49.6864,235.4677,0.0000319
,,1891.4545455,0.999846,164.1533,171.5774,353.1286,-0.0000496
,,,1.0,136.386,330.436,56.666,
,,,1.0,144.14,355.72,81.04,
,,,1.0,36.92,152.84,78.74,
,,,1.0,145.6146,11.7104,128.0082,
,,1145.7230223,0.995209,179.2123,238.3009,182.8308,0.0003415
,,41.7429112,0.970905,13.8812,223.4750,229.2138,0.0406094
,,1143.998192111026,.999197597926641,65.71435737611689,331.1678657412697,82.73641647339251,.0005793571999628031
,,9501.7434679,0.999579,89.3273,250.2083,255.2662,-0.0000174
,,,1.0,16.2766,195.4353,274.5004,
,,5982.354242834524,.9998838953999036,79.92945870986766,358.3958745147032,87.03272479489142,359.999920939276
,,78.8564928,0.983297,139.0692,53.0127,53.0001,-0.0256321
,,67.5284480,0.946780,159.8090,294.8423,123.5706,0.0350005
,,5669.7575107,0.999534,114.9293,134.6178,157.7548,0.0000081
,,-3816.601532201408,1.000314323622892,147.119166436454,111.6655707336779,238.3084394174511,-.0003418579950304261
,,-3845.0352564,1.000312,147.1191,111.6661,238.3072,0.0000588
,,-1504.8243413,1.000797,147.1192,111.6661,238.3135,0.0002383
,,18913.7912088,0.999909,160.5801,74.8046,70.2329,0.0000062
,,-2405.9660574,1.000383,96.5830,17.1167,95.2451,0.0001543
,,207.0510587878576,.9958001192314254,172.2299287398941,176.0106589249051,200.4021243161781,359.9936001768883
,,80.6194872,0.995125,40.8543,97.7060,195.2764,0.0151522
,,-3595.8214286,1.001008,124.0800,194.4877,329.0892,-0.0000698
,,-1922.3487143,1.002839,132.4743,268.3257,16.9960,0.0001040
,,165.1490178405751,.9947383511154976,34.08809392070816,268.0929048363991,73.8996317907493,.01008945755327773
,,-1378.9542334,1.000437,114.8751,298.5696,143.8336,0.0000476
,,,1.0,62.5345,143.7254,13.1872,
,,,1.0,144.256,1.159,80.591,
,,576.4937505697903,.9985408984948647,97.12651965007115,261.3419125834055,17.40870119624886,.001926879552280358
,,,1.0,144.466,3.660,82.632,
,,,1.0,41.6225849543798,226.5288595612602,329.2921404130273,
,,-8314.4851485,1.000202,117.7834,250.7538,233.6271,0.0000220
,,-699.1439060,1.004767,76.7159,198.3456,194.7364,-0.0010028
,,244.9295488,0.996565,73.3224,31.5154,57.3876,-0.0028578
,,-1997.1520445,1.002519,80.5858,325.1598,124.2192,0.0000649
,,,1.0,93.1570,147.5202,346.8345,
,,537.6263736,0.997816,62.8074,288.7651,326.5149,-0.0007074
,,541.2285714,0.997830,62.8066,288.7649,326.5150,-0.0004087
,,-3691.867675689532,1.000670201350802,97.68849476093813,115.2551223408747,232.1460473993948,-.0009686673158143579
,,,1.0,144.706,7.660,85.882,
,,,1.0,40.1990,167.7281,349.0366,
,,,1.0,144.436,3.200,82.252,
,,,1.0,144.786,10.351,88.083,
,,,1.0,144.716,7.981,86.142,
,,,1.0,144.796,14.021,91.084,
,,,1.0,71.0077,315.5225,88.1228,
,,1410.31578566992,.9986566167827319,52.4095838594279,157.0884603971302,351.5604073091913,.001771551511796443
,,18.8529966,0.977708,83.0672,28.4357,194.7353,0.0
,,547.6155602,0.995180,96.5548,137.1386,19.1090,0.0013004
,,,1.0,25.5050,74.3147,18.8355,
,,,1.0,144.636,6.240,84.722,
,,,1.0,144.786,14.902,91.804,
,,-12803.87078398914,1.000050166934307,90.14614963594479,275.5103691128814,150.5712264053051,-2.375321067506526E-5
,,,1.0,128.1341,128.6096,154.9103,
,,,1.0,144.768,9.636,87.499,
,,112.0969710,0.990657,46.0369,8.5186,68.1263,0.0033698
,,-3227.164279787497,1.000093173669367,88.38765807172712,345.9146322153377,205.2589729652776,-.0001230524563788584
,,-1529.839598484181,1.000228634268294,58.95644079395399,75.92533590271421,61.57633764253554,.0001158345393740783
,,-5327.26094045336,1.00029455446894,59.36586123107189,280.0093592116608,137.8333198446836,-.0001189590505896508
,,,1.0,160.3369,293.8975,191.7410,
,,,1.0,48.1425,348.4448,100.6214,
,,-1498.666001804443,1.000626370846714,131.5839912575771,139.364169264127,242.6669392756395,-.0005892011523990428
,,-2238.9298831,1.001198,132.7742,233.2060,18.1719,0.0000496
,,233.2245944,0.995316,143.7839,330.7378,180.9189,-0.0007587
,,151.0756347,0.990507,70.9783,115.5226,337.6388,0.0021829
,,348.8963339,0.993508,77.2881,145.1295,74.3650,0.0028462
,,-2700.4448841,1.001769,113.4304,161.7096,320.8865,0.0001250
,,-3521.3944316,1.000431,95.4565,11.8349,271.1592,-0.0000048
,11.6,13.80345566059359,.9288178630692923,19.19030996858108,329.4309837211803,41.47119826431925,1.956559030180357
,,-58432.6867469,1.000083,49.2952,253.6535,30.7913,0.0000006
,,589.3991511,0.994581,90.5062,120.4638,257.2310,0.0010024
,,11160.2875399,0.999374,104.5086,150.1176,149.2398,-0.0000060
,,5975.624496551566,.9998600548432995,113.4970851088293,49.0493845247663,145.2387375010539,359.9997428772263
,,-900.6027681482402,1.000220756914738,95.57923987605376,288.781915703347,306.9819325866603,-.001867147652267029
,,-11126.6887158011,1.000057876069162,50.028420073166,254.9078260707935,197.8727608822565,-1.76278228810207E-5
,,-727.0614606,1.004149,39.2638,288.9032,239.8431,-0.0005876
,,,1.0,20.2378,275.3503,15.3368,
,,312.7164105,0.995966,79.2924,300.5082,65.4746,-0.0026182
,,77102.7179487,0.999961,124.3187,203.3240,83.4011,0.0000002
,,,1.0,158.5644,159.9981,299.7170,
,,,1.0,57.6407,235.1287,162.6392,
,,58.8554353,0.965365,106.8481,194.6672,268.8535,0.0412314
,,3928.1052632,0.999411,65.9859,55.2994,54.8646,0.0000333
,,80.2191086,0.991721,115.1232,138.3753,310.0665,-0.0104104
,,-1089.1124227,1.001779,124.8778,144.7224,130.6569,-0.0001339
,,-1022.0810670,1.005773,53.9401,77.5156,61.9940,0.0000448
,,6.86479462772464,0.216209166902718,6.00329387351007,220.5376550079234,354.8935191875186,2.460243947965054
,,6.85975046060383,0.21561980095451,5.99021562093506,220.5652860320984,354.900653461561,2.439549184516066
,,6.85550078308846,0.215168721891631,5.98196470024359,220.5813885747498,354.9082645452898,2.426369089049099
,,6.85157692775468,0.214725344771338,5.97296760290446,220.6003060582256,354.9131082615112,2.412564931136775
,,6.84876680329523,0.214410647112686,5.96662924437359,220.6137808842797,354.9161510513367,2.403034293582742
,,6.8416311328135,0.213584842181363,5.94846271863137,220.6516057354847,354.9331036468758,2.370020327560477
,,6.83519994507556,0.212881484692546,5.93551371374279,220.6800824727586,354.9341584873779,2.353728392687173
,,6.82546594922813,0.211779323910265,5.91286837566443,220.7283092701876,354.9484286592523,2.316747000442115
,,6.81351105282298,0.210425448477792,5.88506957894794,220.7889748161197,354.9675576803588,2.269178277177529
,,6.80415743988231,0.209361077381853,5.86313092273686,220.8375140775926,354.9845262803184,2.229687088770825
,,6.79471927543361,0.208276887601964,5.8404576774569,220.8862695672824,354.9999828227799,2.190598429189645
,,6.79035121307075,0.207745069231454,5.82928836968581,220.9090778555222,354.9993823589552,2.176643046148479
,,6.78700125866336,0.207404261072323,5.82281870280407,220.9279851444948,355.0109920624971,2.158831330388483
,,6.7798162961469,0.206581487615908,5.80586825809112,220.9664591885893,355.0222937472982,2.128378526838132
,,6.77247672376735,0.205736784639543,5.78848328695519,221.0066546466664,355.033366236503,2.096821312879368
,,6.77073147824917,0.205504067078631,5.78300221201263,221.0162043671059,355.0334936117537,2.090142095015435
,,6.76764030690653,0.205167432646655,5.77630972332207,221.0341743983971,355.0415098813174,2.074457573368926
,,6.76283133151766,0.204616254273571,5.76488981827278,221.0607869247233,355.0500858202889,2.052673434075682
,,6.75981885231139,0.204282262259821,5.75836987705035,221.0772132764814,355.0561377415564,2.039044744586265
,,6.79146749135263,0.207887299897626,5.83125747469604,220.9047235825254,355.0119377496794,2.171297332401117
,,6.78749083083471,0.207453370273124,5.8236069821438,220.9245601796864,355.0110660235005,2.16063770857906
,,-53918.91508776817,1.000089936671929,67.76676945668905,30.32833178307915,232.4532842949121,8.422710115258835E-6
,,-3002.255745489366,1.000322175734649,105.0265253123575,193.7889775736992,261.0328433265259,-.0008943888709926211
